[
    {
        "Altitude(m)": 702779.0605083081,
        "Argument of Periapsis(deg)": 0.010251109067964361,
        "Eccentricity": 0.0,
        "Inclination(deg)": 45.0,
        "Latitude(deg)": 7.309613441157405,
        "Longitude(deg)": -18.363367775731835,
        "Mean Anomaly(deg)": 10.379894982732738,
        "RAAN(deg)": 74.99032325268763,
        "Satellite Name": "Constellation 1 330",
        "Satellite Number": 330,
        "Semi-Major Axis(m)": 7083131.272910544,
        "Time(s)": 171
    },
    {
        "Altitude(m)": 702776.983767382,
        "Argument of Periapsis(deg)": 0.010311057074209765,
        "Eccentricity": 0.0,
        "Inclination(deg)": 45.0,
        "Latitude(deg)": 7.352476880237195,
        "Longitude(deg)": -18.323904625050147,
        "Mean Anomaly(deg)": 10.440596122982637,
        "RAAN(deg)": 74.99026666352205,
        "Satellite Name": "Constellation 1 330",
        "Satellite Number": 330,
        "Semi-Major Axis(m)": 7083131.272910544,
        "Time(s)": 172
    },
    {
        "Altitude(m)": 702774.9274201213,
        "Argument of Periapsis(deg)": 0.010371005080455171,
        "Eccentricity": 0.0,
        "Inclination(deg)": 45.0,
        "Latitude(deg)": 7.395336054045814,
        "Longitude(deg)": -18.28443307290042,
        "Mean Anomaly(deg)": 10.501297263232537,
        "RAAN(deg)": 74.99021007435648,
        "Satellite Name": "Constellation 1 330",
        "Satellite Number": 330,
        "Semi-Major Axis(m)": 7083131.272910544,
        "Time(s)": 173
    },
    {
        "Altitude(m)": 702772.8914571406,
        "Argument of Periapsis(deg)": 0.010430953086700577,
        "Eccentricity": 0.0,
        "Inclination(deg)": 45.0,
        "Latitude(deg)": 7.438190936249824,
        "Longitude(deg)": -18.244953069364218,
        "Mean Anomaly(deg)": 10.561998403482436,
        "RAAN(deg)": 74.9901534851909,
        "Satellite Name": "Constellation 1 330",
        "Satellite Number": 330,
        "Semi-Major Axis(m)": 7083131.272910544,
        "Time(s)": 174
    },
    {
        "Altitude(m)": 702770.8758689668,
        "Argument of Periapsis(deg)": 0.010490901092945983,
        "Eccentricity": 0.0,
        "Inclination(deg)": 45.0,
        "Latitude(deg)": 7.481041500499555,
        "Longitude(deg)": -18.205464564504837,
        "Mean Anomaly(deg)": 10.622699543732335,
        "RAAN(deg)": 74.99009689602534,
        "Satellite Name": "Constellation 1 330",
        "Satellite Number": 330,
        "Semi-Major Axis(m)": 7083131.272910544,
        "Time(s)": 175
    },
    {
        "Altitude(m)": 702768.8806460286,
        "Argument of Periapsis(deg)": 0.010550849099191389,
        "Eccentricity": 0.0,
        "Inclination(deg)": 45.0,
        "Latitude(deg)": 7.523887720429,
        "Longitude(deg)": -18.165967508367405,
        "Mean Anomaly(deg)": 10.683400683982235,
        "RAAN(deg)": 74.99004030685978,
        "Satellite Name": "Constellation 1 330",
        "Satellite Number": 330,
        "Semi-Major Axis(m)": 7083131.272910544,
        "Time(s)": 176
    },
    {
        "Altitude(m)": 702766.9057786817,
        "Argument of Periapsis(deg)": 0.010610797105436795,
        "Eccentricity": 0.0,
        "Inclination(deg)": 45.0,
        "Latitude(deg)": 7.566729569655732,
        "Longitude(deg)": -18.126461850978576,
        "Mean Anomaly(deg)": 10.744101824232134,
        "RAAN(deg)": 74.9899837176942,
        "Satellite Name": "Constellation 1 330",
        "Satellite Number": 330,
        "Semi-Major Axis(m)": 7083131.272910544,
        "Time(s)": 177
    },
    {
        "Altitude(m)": 702764.951257182,
        "Argument of Periapsis(deg)": 0.0106707451116822,
        "Eccentricity": 0.0,
        "Inclination(deg)": 45.0,
        "Latitude(deg)": 7.609567021780549,
        "Longitude(deg)": -18.08694771044342,
        "Mean Anomaly(deg)": 10.804802964482047,
        "RAAN(deg)": 74.98992712852863,
        "Satellite Name": "Constellation 1 330",
        "Satellite Number": 330,
        "Semi-Major Axis(m)": 7083131.272910544,
        "Time(s)": 178
    },
    {
        "Altitude(m)": 702763.0170717002,
        "Argument of Periapsis(deg)": 0.010730693117927606,
        "Eccentricity": 0.0,
        "Inclination(deg)": 45.0,
        "Latitude(deg)": 7.652400050388444,
        "Longitude(deg)": -18.047424700557535,
        "Mean Anomaly(deg)": 10.865504104731933,
        "RAAN(deg)": 74.98987053936307,
        "Satellite Name": "Constellation 1 330",
        "Satellite Number": 330,
        "Semi-Major Axis(m)": 7083131.272910544,
        "Time(s)": 179
    },
    {
        "Altitude(m)": 702761.103212319,
        "Argument of Periapsis(deg)": 0.01079064112417301,
        "Eccentricity": 0.0,
        "Inclination(deg)": 45.0,
        "Latitude(deg)": 7.695228629046881,
        "Longitude(deg)": -18.00789293938876,
        "Mean Anomaly(deg)": 10.926205244981832,
        "RAAN(deg)": 74.98981395019749,
        "Satellite Name": "Constellation 1 330",
        "Satellite Number": 330,
        "Semi-Major Axis(m)": 7083131.272910544,
        "Time(s)": 180
    },
    {
        "Altitude(m)": 702759.2096690338,
        "Argument of Periapsis(deg)": 0.010850589130418416,
        "Eccentricity": 0.0,
        "Inclination(deg)": 45.0,
        "Latitude(deg)": 7.738052731306799,
        "Longitude(deg)": -17.968352376889147,
        "Mean Anomaly(deg)": 10.98690638523173,
        "RAAN(deg)": 74.98975736103192,
        "Satellite Name": "Constellation 1 330",
        "Satellite Number": 330,
        "Semi-Major Axis(m)": 7083131.272910544,
        "Time(s)": 181
    },
    {
        "Altitude(m)": 702757.3364317481,
        "Argument of Periapsis(deg)": 0.01091053713666382,
        "Eccentricity": 0.0,
        "Inclination(deg)": 45.0,
        "Latitude(deg)": 7.780872330702203,
        "Longitude(deg)": -17.92880296299191,
        "Mean Anomaly(deg)": 11.047607525481629,
        "RAAN(deg)": 74.98970077186635,
        "Satellite Name": "Constellation 1 330",
        "Satellite Number": 330,
        "Semi-Major Axis(m)": 7083131.272910544,
        "Time(s)": 182
    },
    {
        "Altitude(m)": 702755.4834902807,
        "Argument of Periapsis(deg)": 0.010970485142909228,
        "Eccentricity": 0.0,
        "Inclination(deg)": 45.0,
        "Latitude(deg)": 7.8236874007501305,
        "Longitude(deg)": -17.88924464761119,
        "Mean Anomaly(deg)": 11.108308665731528,
        "RAAN(deg)": 74.98964418270079,
        "Satellite Name": "Constellation 1 330",
        "Satellite Number": 330,
        "Semi-Major Axis(m)": 7083131.272910544,
        "Time(s)": 183
    },
    {
        "Altitude(m)": 702753.6508343566,
        "Argument of Periapsis(deg)": 0.011030433149154634,
        "Eccentricity": 0.0,
        "Inclination(deg)": 45.0,
        "Latitude(deg)": 7.866497914950495,
        "Longitude(deg)": -17.849677380642262,
        "Mean Anomaly(deg)": 11.169009805981428,
        "RAAN(deg)": 74.98958759353522,
        "Satellite Name": "Constellation 1 330",
        "Satellite Number": 330,
        "Semi-Major Axis(m)": 7083131.272910544,
        "Time(s)": 184
    },
    {
        "Altitude(m)": 702751.8384536218,
        "Argument of Periapsis(deg)": 0.01109038115540004,
        "Eccentricity": 0.0,
        "Inclination(deg)": 45.0,
        "Latitude(deg)": 7.90930384678575,
        "Longitude(deg)": -17.810101280058113,
        "Mean Anomaly(deg)": 11.229710946231327,
        "RAAN(deg)": 74.98953100436965,
        "Satellite Name": "Constellation 1 330",
        "Satellite Number": 330,
        "Semi-Major Axis(m)": 7083131.272910544,
        "Time(s)": 185
    },
    {
        "Altitude(m)": 702750.0463376272,
        "Argument of Periapsis(deg)": 0.011150329161645444,
        "Eccentricity": 0.0,
        "Inclination(deg)": 45.0,
        "Latitude(deg)": 7.952105169721891,
        "Longitude(deg)": -17.770515959521397,
        "Mean Anomaly(deg)": 11.290412086481226,
        "RAAN(deg)": 74.98947441520407,
        "Satellite Name": "Constellation 1 330",
        "Satellite Number": 330,
        "Semi-Major Axis(m)": 7083131.272910544,
        "Time(s)": 186
    },
    {
        "Altitude(m)": 702748.274475836,
        "Argument of Periapsis(deg)": 0.01121027716789085,
        "Eccentricity": 0.0,
        "Inclination(deg)": 45.0,
        "Latitude(deg)": 7.994901857206688,
        "Longitude(deg)": -17.730921536966562,
        "Mean Anomaly(deg)": 11.351113226731126,
        "RAAN(deg)": 74.9894178260385,
        "Satellite Name": "Constellation 1 330",
        "Satellite Number": 330,
        "Semi-Major Axis(m)": 7083131.272910544,
        "Time(s)": 187
    },
    {
        "Altitude(m)": 702746.5228576278,
        "Argument of Periapsis(deg)": 0.011270225174136258,
        "Eccentricity": 0.0,
        "Inclination(deg)": 45.0,
        "Latitude(deg)": 8.037693882670704,
        "Longitude(deg)": -17.69131796221156,
        "Mean Anomaly(deg)": 11.411814366981027,
        "RAAN(deg)": 74.98936123687294,
        "Satellite Name": "Constellation 1 330",
        "Satellite Number": 330,
        "Semi-Major Axis(m)": 7083131.272910544,
        "Time(s)": 188
    },
    {
        "Altitude(m)": 702744.7914722887,
        "Argument of Periapsis(deg)": 0.011330173180381662,
        "Eccentricity": 0.0,
        "Inclination(deg)": 45.0,
        "Latitude(deg)": 8.080481219526892,
        "Longitude(deg)": -17.651705185054915,
        "Mean Anomaly(deg)": 11.472515507230924,
        "RAAN(deg)": 74.98930464770736,
        "Satellite Name": "Constellation 1 330",
        "Satellite Number": 330,
        "Semi-Major Axis(m)": 7083131.272910544,
        "Time(s)": 189
    }
]